{
    "links": {
        "self": "http://www.neowsapp.com/rest/v1/neo/3719381?api_key=iIulBulltgU6a56xZRHN4H3l9WmuAYTsLGpBGhQ2"
    },
    "id": "3719381",
    "neo_reference_id": "3719381",
    "name": "(2015 KV18)",
    "designation": "2015 KV18",
    "nasa_jpl_url": "http://ssd.jpl.nasa.gov/sbdb.cgi?sstr=3719381",
    "absolute_magnitude_h": 23.8,
    "estimated_diameter": {
        "kilometers": {
            "estimated_diameter_min": 0.046190746,
            "estimated_diameter_max": 0.1032856481
        },
        "meters": {
            "estimated_diameter_min": 46.1907460282,
            "estimated_diameter_max": 103.2856480504
        },
        "miles": {
            "estimated_diameter_min": 0.0287015901,
            "estimated_diameter_max": 0.0641787064
        },
        "feet": {
            "estimated_diameter_min": 151.544447199,
            "estimated_diameter_max": 338.8636855496
        }
    },
    "is_potentially_hazardous_asteroid": false,
    "close_approach_data": [
        {
            "close_approach_date": "1991-05-20",
            "close_approach_date_full": "1991-May-20 22:35",
            "epoch_date_close_approach": 674778900000,
            "relative_velocity": {
                "kilometers_per_second": "5.3141235244",
                "kilometers_per_hour": "19130.8446878945",
                "miles_per_hour": "11887.1629117642"
            },
            "miss_distance": {
                "astronomical": "0.1653831095",
                "lunar": "64.3340295955",
                "kilometers": "24740960.915176765",
                "miles": "15373320.242358757"
            },
            "orbiting_body": "Earth"
        },
        {
            "close_approach_date": "2015-05-18",
            "close_approach_date_full": "2015-May-18 21:32",
            "epoch_date_close_approach": 1431984720000,
            "relative_velocity": {
                "kilometers_per_second": "4.8395382903",
                "kilometers_per_hour": "17422.3378451886",
                "miles_per_hour": "10825.5632016396"
            },
            "miss_distance": {
                "astronomical": "0.1234948708",
                "lunar": "48.0395047412",
                "kilometers": "18474569.627605196",
                "miles": "11479565.2520798648"
            },
            "orbiting_body": "Earth"
        },
        {
            "close_approach_date": "2039-05-16",
            "close_approach_date_full": "2039-May-16 14:57",
            "epoch_date_close_approach": 2189170620000,
            "relative_velocity": {
                "kilometers_per_second": "6.6177124438",
                "kilometers_per_hour": "23823.7647976954",
                "miles_per_hour": "14803.1609655458"
            },
            "miss_distance": {
                "astronomical": "0.2178162496",
                "lunar": "84.7305210944",
                "kilometers": "32584846.991548352",
                "miles": "20247285.0414651776"
            },
            "orbiting_body": "Earth"
        }
    ],
    "orbital_data": {
        "orbit_id": "13",
        "orbit_determination_date": "2017-04-06 08:33:41",
        "first_observation_date": "2015-05-20",
        "last_observation_date": "2015-06-18",
        "data_arc_in_days": 29,
        "observations_used": 51,
        "orbit_uncertainty": "7",
        "minimum_orbit_intersection": ".121076",
        "jupiter_tisserand_invariant": "4.162",
        "epoch_osculation": "2459000.5",
        "eccentricity": ".3263161930892917",
        "semi_major_axis": "1.680778441278871",
        "inclination": "7.227243202332459",
        "ascending_node_longitude": "233.144509602172",
        "orbital_period": "795.9103095441383",
        "perihelion_distance": "1.132313218894196",
        "perihelion_argument": "4.594412382280763",
        "aphelion_distance": "2.229243663663546",
        "perihelion_time": "2458752.702626749107",
        "mean_anomaly": "112.0817927605629",
        "mean_motion": ".4523122714746488",
        "equinox": "J2000",
        "orbit_class": {
            "orbit_class_type": "AMO",
            "orbit_class_description": "Near-Earth asteroid orbits similar to that of 1221 Amor",
            "orbit_class_range": "1.017 AU < q (perihelion) < 1.3 AU"
        }
    },
    "is_sentry_object": false
}